[{"OBJECT_NAME":"IRIDIUM 180","OBJECT_ID":"2019-002A","EPOCH":"2026-03-09T22:12:10.971936","MEAN_MOTION":14.34217842,"ECCENTRICITY":0.00022889,"INCLINATION":86.3973,"RA_OF_ASC_NODE":35.0663,"ARG_OF_PERICENTER":84.9653,"MEAN_ANOMALY":275.1804,"EPHEMERIS_TYPE":0,"CLASSIFICATION_TYPE":"U","NORAD_CAT_ID":43922,"ELEMENT_SET_NO":999,"REV_AT_EPOCH":37476,"BSTAR":6.536861e-6,"MEAN_MOTION_DOT":3.8e-7,"MEAN_MOTION_DDOT":0},{"OBJECT_NAME":"COSMOS 1275 DEB","OBJECT_ID":"1981-053N","EPOCH":"2026-03-09T20:22:23.849760","MEAN_MOTION":14.29584425,"ECCENTRICITY":0.00335189,"INCLINATION":82.9689,"RA_OF_ASC_NODE":222.5806,"ARG_OF_PERICENTER":24.6374,"MEAN_ANOMALY":100.6255,"EPHEMERIS_TYPE":0,"CLASSIFICATION_TYPE":"U","NORAD_CAT_ID":12658,"ELEMENT_SET_NO":999,"REV_AT_EPOCH":27604,"BSTAR":0.0010965837,"MEAN_MOTION_DOT":2.839e-5,"MEAN_MOTION_DDOT":0}]
